56472,STARLINK-5038,2023,96.11,-1.0,+,70.0,Active,0,LEO,USA,USA,Unknown,Unknown,Unknown,1 56472U 23064AA  25251.27159997  .00000211  00000+0  25517-4 0  9990,2 56472  69.9989 224.4445 0003526 268.9584  91.1171 14.98327326128410,14.98327326,0.0003526,LEO
56474,STARLINK-5524,2023,96.11,-1.0,+,70.0,Active,0,LEO,USA,USA,Unknown,Unknown,Unknown,1 56474U 23064AC  25251.22571022  .00001072  00000+0  97650-4 0  9997,2 56474  69.9987 224.6858 0002931 270.5419  89.5404 14.98323720128408,14.9832372,0.0002931,LEO
56475,STARLINK-5541,2023,96.11,-1.0,+,70.0,Active,0,LEO,USA,USA,Unknown,Unknown,Unknown,1 56475U 23064AD  25251.26742638  .00000611  00000+0  59033-4 0  9996,2 56475  69.9990 224.4263 0003647 269.8599  90.2142 14.98328209128412,14.98328209,0.0003647,LEO
56476,STARLINK-5545,2023,96.11,-1.0,+,70.0,Active,0,LEO,USA,USA,Unknown,Unknown,Unknown,1 56476U 23064AE  25251.20902774  .00002839  00000+0  24558-3 0  9997,2 56476  69.9998 224.6256 0002761 265.8725  94.2118 14.98341609128403,14.98341609,0.0002761,LEO
56477,STARLINK-5534,2023,96.11,-1.0,+,70.0,Active,0,LEO,USA,USA,Unknown,Unknown,Unknown,1 56477U 23064AF  25251.25089324 -.00000069  00000+0  20096-5 0  9999,2 56477  69.9987 224.3696 0003690 266.2527  93.8210 14.98328132128419,14.98328132,0.000369,LEO
56478,STARLINK-6041,2023,96.11,-1.0,+,70.0,Active,0,LEO,USA,USA,Unknown,Unknown,Unknown,1 56478U 23064AG  25251.26325414 -.00000438  00000+0 -28929-4 0  9997,2 56478  69.9990 224.4140 0003074 270.9325  89.1482 14.98324556128418,14.98324556,0.0003074,LEO
56479,STARLINK-6044,2023,96.11,-1.0,+,70.0,Active,0,LEO,USA,USA,Unknown,Unknown,Unknown,1 56479U 23064AH  25251.23820701 -.00000611  00000+0 -43376-4 0  9990,2 56479  69.9992 224.3254 0003102 269.3765  90.7039 14.98327750128413,14.9832775,0.0003102,LEO
56480,STARLINK-6214,2023,95.09,-1.0,P,70.0,Active,0,LEO,USA,USA,Unknown,Unknown,Unknown,1 56480U 23064AJ  25251.23538253  .00011702  00000+0  64118-3 0  9997,2 56480  69.9985 206.8073 0002889 273.6345  86.4491 15.14378005128854,15.14378005,0.0002889,LEO
56481,STARLINK-6222,2023,96.11,-1.0,+,70.0,Active,0,LEO,USA,USA,Unknown,Unknown,Unknown,1 56481U 23064AK  25251.24656735  .00004028  00000+0  34524-3 0  9996,2 56481  69.9989 224.3540 0003114 275.4367  84.6437 14.98326631128410,14.98326631,0.0003114,LEO
56482,STARLINK-6220,2023,96.11,-1.0,+,70.0,Active,0,LEO,USA,USA,Unknown,Unknown,Unknown,1 56482U 23064AL  25251.25907696 -.00000410  00000+0 -26578-4 0  9997,2 56482  69.9991 224.3986 0003030 269.4781  90.6031 14.98330260128418,14.9833026,0.000303,LEO
56483,STARLINK-5868,2023,96.11,-1.0,+,70.0,Active,0,LEO,USA,USA,Unknown,Unknown,Unknown,1 56483U 23064AM  25251.25490137 -.00004163  00000+0 -34119-3 0  9993,2 56483  69.9991 224.3803 0003235 270.2242  89.8546 14.98343783128411,14.98343783,0.0003235,LEO
56484,STARLINK-6221,2023,96.11,-1.0,+,70.0,Active,0,LEO,USA,USA,Unknown,Unknown,Unknown,1 56484U 23064AN  25251.05215519 -.00241856  00000+0 -22023-1 0  9992,2 56484  69.9988 224.8793 0006652  39.5309 320.6333 14.96409997128381,14.96409997,0.0006652,LEO
56485,STARLINK-6210,2023,96.11,-1.0,+,70.0,Active,0,LEO,USA,USA,Unknown,Unknown,Unknown,1 56485U 23064AP  25251.23404335  .00004484  00000+0  38345-3 0  9997,2 56485  69.9988 224.3094 0003660 273.9542  86.1198 14.98320888128410,14.98320888,0.000366,LEO
56486,STARLINK-6201,2023,96.11,-1.0,+,70.0,Active,0,LEO,USA,USA,Unknown,Unknown,Unknown,1 56486U 23064AQ  25251.24238130 -.00000624  00000+0 -44547-4 0  9993,2 56486  69.9992 224.3401 0003170 269.1259  90.9537 14.98328063128419,14.98328063,0.000317,LEO
56487,STARLINK-6196,2023,96.11,-1.0,+,70.0,Active,0,LEO,USA,USA,Unknown,Unknown,Unknown,1 56487U 23064AR  25251.21711510  .00000353  00000+0  37390-4 0  9994,2 56487  69.9997 204.3865 0003291 269.9035  90.1747 14.98326827128906,14.98326827,0.0003291,LEO
56488,STARLINK-6204,2023,96.11,-1.0,+,70.0,Active,0,LEO,USA,USA,Unknown,Unknown,Unknown,1 56488U 23064AS  25251.25886036 -.00001211  00000+0 -93752-4 0  9995,2 56488  70.0008 204.5281 0002843 271.4237  88.6596 14.98322740128905,14.9832274,0.0002843,LEO
