[{"OBJECT_NAME":"STARLINK-5038","OBJECT_ID":"2023-064AA","EPOCH":"2025-09-08T06:31:06.237408","MEAN_MOTION":14.98327326,"ECCENTRICITY":0.00035263,"INCLINATION":69.9989,"RA_OF_ASC_NODE":224.4445,"ARG_OF_PERICENTER":268.9584,"MEAN_ANOMALY":91.1171,"EPHEMERIS_TYPE":0,"CLASSIFICATION_TYPE":"U","NORAD_CAT_ID":56472,"ELEMENT_SET_NO":999,"REV_AT_EPOCH":12841,"BSTAR":2.5517476e-5,"MEAN_MOTION_DOT":2.11e-6,"MEAN_MOTION_DDOT":0},{"OBJECT_NAME":"STARLINK-5524","OBJECT_ID":"2023-064AC","EPOCH":"2025-09-08T05:25:01.363008","MEAN_MOTION":14.9832372,"ECCENTRICITY":0.00029315,"INCLINATION":69.9987,"RA_OF_ASC_NODE":224.6858,"ARG_OF_PERICENTER":270.5419,"MEAN_ANOMALY":89.5404,"EPHEMERIS_TYPE":0,"CLASSIFICATION_TYPE":"U","NORAD_CAT_ID":56474,"ELEMENT_SET_NO":999,"REV_AT_EPOCH":12840,"BSTAR":9.765039e-5,"MEAN_MOTION_DOT":1.072e-5,"MEAN_MOTION_DDOT":0},{"OBJECT_NAME":"STARLINK-5541","OBJECT_ID":"2023-064AD","EPOCH":"2025-09-08T06:25:05.639232","MEAN_MOTION":14.98328209,"ECCENTRICITY":0.00036472,"INCLINATION":69.999,"RA_OF_ASC_NODE":224.4263,"ARG_OF_PERICENTER":269.8599,"MEAN_ANOMALY":90.2142,"EPHEMERIS_TYPE":0,"CLASSIFICATION_TYPE":"U","NORAD_CAT_ID":56475,"ELEMENT_SET_NO":999,"REV_AT_EPOCH":12841,"BSTAR":5.9032502e-5,"MEAN_MOTION_DOT":6.11e-6,"MEAN_MOTION_DDOT":0},{"OBJECT_NAME":"STARLINK-5545","OBJECT_ID":"2023-064AE","EPOCH":"2025-09-08T05:00:59.996736","MEAN_MOTION":14.98341609,"ECCENTRICITY":0.00027618,"INCLINATION":69.9998,"RA_OF_ASC_NODE":224.6256,"ARG_OF_PERICENTER":265.8725,"MEAN_ANOMALY":94.2118,"EPHEMERIS_TYPE":0,"CLASSIFICATION_TYPE":"U","NORAD_CAT_ID":56476,"ELEMENT_SET_NO":999,"REV_AT_EPOCH":12840,"BSTAR":0.00024557742,"MEAN_MOTION_DOT":2.839e-5,"MEAN_MOTION_DDOT":0},{"OBJECT_NAME":"STARLINK-5534","OBJECT_ID":"2023-064AF","EPOCH":"2025-09-08T06:01:17.175936","MEAN_MOTION":14.98328132,"ECCENTRICITY":0.00036904,"INCLINATION":69.9987,"RA_OF_ASC_NODE":224.3696,"ARG_OF_PERICENTER":266.2527,"MEAN_ANOMALY":93.821,"EPHEMERIS_TYPE":0,"CLASSIFICATION_TYPE":"U","NORAD_CAT_ID":56477,"ELEMENT_SET_NO":999,"REV_AT_EPOCH":12841,"BSTAR":2.009603e-6,"MEAN_MOTION_DOT":-6.9e-7,"MEAN_MOTION_DDOT":0},{"OBJECT_NAME":"STARLINK-6041","OBJECT_ID":"2023-064AG","EPOCH":"2025-09-08T06:19:05.157696","MEAN_MOTION":14.98324556,"ECCENTRICITY":0.00030747,"INCLINATION":69.999,"RA_OF_ASC_NODE":224.414,"ARG_OF_PERICENTER":270.9325,"MEAN_ANOMALY":89.1482,"EPHEMERIS_TYPE":0,"CLASSIFICATION_TYPE":"U","NORAD_CAT_ID":56478,"ELEMENT_SET_NO":999,"REV_AT_EPOCH":12841,"BSTAR":-2.8928973e-5,"MEAN_MOTION_DOT":-4.38e-6,"MEAN_MOTION_DDOT":0},{"OBJECT_NAME":"STARLINK-6044","OBJECT_ID":"2023-064AH","EPOCH":"2025-09-08T05:43:01.085664","MEAN_MOTION":14.9832775,"ECCENTRICITY":0.00031029,"INCLINATION":69.9992,"RA_OF_ASC_NODE":224.3254,"ARG_OF_PERICENTER":269.3765,"MEAN_ANOMALY":90.7039,"EPHEMERIS_TYPE":0,"CLASSIFICATION_TYPE":"U","NORAD_CAT_ID":56479,"ELEMENT_SET_NO":999,"REV_AT_EPOCH":12841,"BSTAR":-4.3376378e-5,"MEAN_MOTION_DOT":-6.11e-6,"MEAN_MOTION_DDOT":0},{"OBJECT_NAME":"STARLINK-6214","OBJECT_ID":"2023-064AJ","EPOCH":"2025-09-08T05:38:57.050592","MEAN_MOTION":15.14378005,"ECCENTRICITY":0.00028897,"INCLINATION":69.9985,"RA_OF_ASC_NODE":206.8073,"ARG_OF_PERICENTER":273.6345,"MEAN_ANOMALY":86.4491,"EPHEMERIS_TYPE":0,"CLASSIFICATION_TYPE":"U","NORAD_CAT_ID":56480,"ELEMENT_SET_NO":999,"REV_AT_EPOCH":12885,"BSTAR":0.00064117826,"MEAN_MOTION_DOT":0.00011702,"MEAN_MOTION_DDOT":0},{"OBJECT_NAME":"STARLINK-6222","OBJECT_ID":"2023-064AK","EPOCH":"2025-09-08T05:55:03.419040","MEAN_MOTION":14.98326631,"ECCENTRICITY":0.00031143,"INCLINATION":69.9989,"RA_OF_ASC_NODE":224.354,"ARG_OF_PERICENTER":275.4367,"MEAN_ANOMALY":84.6437,"EPHEMERIS_TYPE":0,"CLASSIFICATION_TYPE":"U","NORAD_CAT_ID":56481,"ELEMENT_SET_NO":999,"REV_AT_EPOCH":12841,"BSTAR":0.00034524024,"MEAN_MOTION_DOT":4.028e-5,"MEAN_MOTION_DDOT":0},{"OBJECT_NAME":"STARLINK-6220","OBJECT_ID":"2023-064AL","EPOCH":"2025-09-08T06:13:04.249344","MEAN_MOTION":14.9833026,"ECCENTRICITY":0.00030305,"INCLINATION":69.9991,"RA_OF_ASC_NODE":224.3986,"ARG_OF_PERICENTER":269.4781,"MEAN_ANOMALY":90.6031,"EPHEMERIS_TYPE":0,"CLASSIFICATION_TYPE":"U","NORAD_CAT_ID":56482,"ELEMENT_SET_NO":999,"REV_AT_EPOCH":12841,"BSTAR":-2.657822e-5,"MEAN_MOTION_DOT":-4.1e-6,"MEAN_MOTION_DDOT":0},{"OBJECT_NAME":"STARLINK-5868","OBJECT_ID":"2023-064AM","EPOCH":"2025-09-08T06:07:03.478368","MEAN_MOTION":14.98343783,"ECCENTRICITY":0.00032353,"INCLINATION":69.9991,"RA_OF_ASC_NODE":224.3803,"ARG_OF_PERICENTER":270.2242,"MEAN_ANOMALY":89.8546,"EPHEMERIS_TYPE":0,"CLASSIFICATION_TYPE":"U","NORAD_CAT_ID":56483,"ELEMENT_SET_NO":999,"REV_AT_EPOCH":12841,"BSTAR":-0.00034118961,"MEAN_MOTION_DOT":-4.163e-5,"MEAN_MOTION_DDOT":0},{"OBJECT_NAME":"STARLINK-6221","OBJECT_ID":"2023-064AN","EPOCH":"2025-09-08T01:15:06.208416","MEAN_MOTION":14.96409997,"ECCENTRICITY":0.00066527,"INCLINATION":69.9988,"RA_OF_ASC_NODE":224.8793,"ARG_OF_PERICENTER":39.5309,"MEAN_ANOMALY":320.6333,"EPHEMERIS_TYPE":0,"CLASSIFICATION_TYPE":"U","NORAD_CAT_ID":56484,"ELEMENT_SET_NO":999,"REV_AT_EPOCH":12838,"BSTAR":-0.022022608,"MEAN_MOTION_DOT":-0.00241856,"MEAN_MOTION_DDOT":0},{"OBJECT_NAME":"STARLINK-6210","OBJECT_ID":"2023-064AP","EPOCH":"2025-09-08T05:37:01.345440","MEAN_MOTION":14.98320888,"ECCENTRICITY":0.00036608,"INCLINATION":69.9988,"RA_OF_ASC_NODE":224.3094,"ARG_OF_PERICENTER":273.9542,"MEAN_ANOMALY":86.1198,"EPHEMERIS_TYPE":0,"CLASSIFICATION_TYPE":"U","NORAD_CAT_ID":56485,"ELEMENT_SET_NO":999,"REV_AT_EPOCH":12841,"BSTAR":0.00038344572,"MEAN_MOTION_DOT":4.484e-5,"MEAN_MOTION_DDOT":0},{"OBJECT_NAME":"STARLINK-6201","OBJECT_ID":"2023-064AQ","EPOCH":"2025-09-08T05:49:01.744320","MEAN_MOTION":14.98328063,"ECCENTRICITY":0.00031704,"INCLINATION":69.9992,"RA_OF_ASC_NODE":224.3401,"ARG_OF_PERICENTER":269.1259,"MEAN_ANOMALY":90.9537,"EPHEMERIS_TYPE":0,"CLASSIFICATION_TYPE":"U","NORAD_CAT_ID":56486,"ELEMENT_SET_NO":999,"REV_AT_EPOCH":12841,"BSTAR":-4.454667e-5,"MEAN_MOTION_DOT":-6.24e-6,"MEAN_MOTION_DDOT":0},{"OBJECT_NAME":"STARLINK-6196","OBJECT_ID":"2023-064AR","EPOCH":"2025-09-08T05:12:38.744640","MEAN_MOTION":14.98326827,"ECCENTRICITY":0.00032911,"INCLINATION":69.9997,"RA_OF_ASC_NODE":204.3865,"ARG_OF_PERICENTER":269.9035,"MEAN_ANOMALY":90.1747,"EPHEMERIS_TYPE":0,"CLASSIFICATION_TYPE":"U","NORAD_CAT_ID":56487,"ELEMENT_SET_NO":999,"REV_AT_EPOCH":12890,"BSTAR":3.7390428e-5,"MEAN_MOTION_DOT":3.53e-6,"MEAN_MOTION_DDOT":0},{"OBJECT_NAME":"STARLINK-6204","OBJECT_ID":"2023-064AS","EPOCH":"2025-09-08T06:12:45.535104","MEAN_MOTION":14.9832274,"ECCENTRICITY":0.00028439,"INCLINATION":70.0008,"RA_OF_ASC_NODE":204.5281,"ARG_OF_PERICENTER":271.4237,"MEAN_ANOMALY":88.6596,"EPHEMERIS_TYPE":0,"CLASSIFICATION_TYPE":"U","NORAD_CAT_ID":56488,"ELEMENT_SET_NO":999,"REV_AT_EPOCH":12890,"BSTAR":-9.3751601e-5,"MEAN_MOTION_DOT":-1.211e-5,"MEAN_MOTION_DDOT":0}]
